{"type": "FeatureCollection", "features": [{"type": "Feature", "properties": {"norad_id": 25730, "name": "FENGYUN 1C", "group": "fengyun-1c-debris", "lat": 9.755712519490986, "lon": 66.38598034235277, "alt_km": 799.3396965078118, "timestamp": "2025-12-27T16:33:30.493415+00:00", "meta": {"OBJECT_NAME": "FENGYUN 1C", "OBJECT_ID": "1999-025A", "EPOCH": "2025-12-27T11:27:39.297024", "MEAN_MOTION": 14.26130275, "ECCENTRICITY": 0.0010091, "INCLINATION": 98.8816, "RA_OF_ASC_NODE": 67.7113, "ARG_OF_PERICENTER": 28.1598, "MEAN_ANOMALY": 332.0125, "EPHEMERIS_TYPE": 0, "CLASSIFICATION_TYPE": "U", "NORAD_CAT_ID": 25730, "ELEMENT_SET_NO": 999, "REV_AT_EPOCH": 37347, "BSTAR": 0.0012868, "MEAN_MOTION_DOT": 3.035e-05, "MEAN_MOTION_DDOT": 0}, "tle": {"line1": "1 25730U 99025A   25361.47753816  .00003035  00000+0  12868-2 0  9997", "line2": "2 25730  98.8816  67.7113 0010091  28.1598 332.0125 14.26130275373479"}}, "geometry": {"type": "Point", "coordinates": [66.38598034235277, 9.755712519490986]}}, {"type": "Feature", "properties": {"norad_id": 29733, "name": "FENGYUN 1C DEB", "group": "fengyun-1c-debris", "lat": -22.221185525302257, "lon": -128.3226598733258, "alt_km": 915.1318158661861, "timestamp": "2025-12-27T16:33:30.493436+00:00", "meta": {"OBJECT_NAME": "FENGYUN 1C DEB", "OBJECT_ID": "1999-025X", "EPOCH": "2025-12-27T02:44:21.634656", "MEAN_MOTION": 12.96495593, "ECCENTRICITY": 0.05695751, "INCLINATION": 99.2234, "RA_OF_ASC_NODE": 54.9949, "ARG_OF_PERICENTER": 168.973, "MEAN_ANOMALY": 223.7137, "EPHEMERIS_TYPE": 0, "CLASSIFICATION_TYPE": "U", "NORAD_CAT_ID": 29733, "ELEMENT_SET_NO": 999, "REV_AT_EPOCH": 89306, "BSTAR": 0.00083556198, "MEAN_MOTION_DOT": 4.72e-06, "MEAN_MOTION_DDOT": 0}, "tle": {"line1": "1 29733U 99025X   25361.11413929  .00000472  00000+0  83556-3 0  9998", "line2": "2 29733  99.2234  54.9949 0569575 168.9730 223.7137 12.96495593893060"}}, "geometry": {"type": "Point", "coordinates": [-128.3226598733258, -22.221185525302257]}}, {"type": "Feature", "properties": {"norad_id": 29734, "name": "FENGYUN 1C DEB", "group": "fengyun-1c-debris", "lat": 69.67536580300867, "lon": 135.0041466305901, "alt_km": 1577.8602179845047, "timestamp": "2025-12-27T16:33:30.493450+00:00", "meta": {"OBJECT_NAME": "FENGYUN 1C DEB", "OBJECT_ID": "1999-025Y", "EPOCH": "2025-12-27T01:27:55.357632", "MEAN_MOTION": 12.91384396, "ECCENTRICITY": 0.06155121, "INCLINATION": 99.1701, "RA_OF_ASC_NODE": 288.6248, "ARG_OF_PERICENTER": 339.221, "MEAN_ANOMALY": 81.2203, "EPHEMERIS_TYPE": 0, "CLASSIFICATION_TYPE": "U", "NORAD_CAT_ID": 29734, "ELEMENT_SET_NO": 999, "REV_AT_EPOCH": 88733, "BSTAR": 0.0040943726, "MEAN_MOTION_DOT": 2.519e-05, "MEAN_MOTION_DDOT": 0}, "tle": {"line1": "1 29734U 99025Y   25361.06105738  .00002519  00000+0  40944-2 0  9996", "line2": "2 29734  99.1701 288.6248 0615512 339.2210  81.2203 12.91384396887333"}}, "geometry": {"type": "Point", "coordinates": [135.0041466305901, 69.67536580300867]}}, {"type": "Feature", "properties": {"norad_id": 29735, "name": "FENGYUN 1C DEB", "group": "fengyun-1c-debris", "lat": -51.94650321561063, "lon": 81.94850718465588, "alt_km": 1339.1362063098622, "timestamp": "2025-12-27T16:33:30.493462+00:00", "meta": {"OBJECT_NAME": "FENGYUN 1C DEB", "OBJECT_ID": "1999-025Z", "EPOCH": "2025-12-27T05:59:35.912544", "MEAN_MOTION": 12.75080412, "ECCENTRICITY": 0.06977826, "INCLINATION": 99.3916, "RA_OF_ASC_NODE": 273.7868, "ARG_OF_PERICENTER": 142.9318, "MEAN_ANOMALY": 222.214, "EPHEMERIS_TYPE": 0, "CLASSIFICATION_TYPE": "U", "NORAD_CAT_ID": 29735, "ELEMENT_SET_NO": 999, "REV_AT_EPOCH": 87600, "BSTAR": 0.0027742863, "MEAN_MOTION_DOT": 1.589e-05, "MEAN_MOTION_DDOT": 0}, "tle": {"line1": "1 29735U 99025Z   25361.24972121  .00001589  00000+0  27743-2 0  9993", "line2": "2 29735  99.3916 273.7868 0697782 142.9318 222.2140 12.75080412876007"}}, "geometry": {"type": "Point", "coordinates": [81.94850718465588, -51.94650321561063]}}, {"type": "Feature", "properties": {"norad_id": 29736, "name": "FENGYUN 1C DEB", "group": "fengyun-1c-debris", "lat": 55.752688833184884, "lon": 12.313531002072589, "alt_km": 999.5439636533183, "timestamp": "2025-12-27T16:33:30.493473+00:00", "meta": {"OBJECT_NAME": "FENGYUN 1C DEB", "OBJECT_ID": "1999-025AA", "EPOCH": "2025-12-27T01:17:37.474944", "MEAN_MOTION": 12.57515347, "ECCENTRICITY": 0.07241691, "INCLINATION": 99.403, "RA_OF_ASC_NODE": 177.7135, "ARG_OF_PERICENTER": 167.9898, "MEAN_ANOMALY": 322.5576, "EPHEMERIS_TYPE": 0, "CLASSIFICATION_TYPE": "U", "NORAD_CAT_ID": 29736, "ELEMENT_SET_NO": 999, "REV_AT_EPOCH": 86724, "BSTAR": 0.0020431681, "MEAN_MOTION_DOT": 8.99e-06, "MEAN_MOTION_DDOT": 0}, "tle": {"line1": "1 29736U 99025AA  25361.05390596  .00000899  00000+0  20432-2 0  9994", "line2": "2 29736  99.4030 177.7135 0724169 167.9898 322.5576 12.57515347867249"}}, "geometry": {"type": "Point", "coordinates": [12.313531002072589, 55.752688833184884]}}, {"type": "Feature", "properties": {"norad_id": 29737, "name": "FENGYUN 1C DEB", "group": "fengyun-1c-debris", "lat": -58.90092698861266, "lon": -29.45185439442677, "alt_km": 1930.2252582144274, "timestamp": "2025-12-27T16:33:30.493492+00:00", "meta": {"OBJECT_NAME": "FENGYUN 1C DEB", "OBJECT_ID": "1999-025AB", "EPOCH": "2025-12-26T20:11:18.447936", "MEAN_MOTION": 12.65699266, "ECCENTRICITY": 0.0696212, "INCLINATION": 99.5801, "RA_OF_ASC_NODE": 313.5818, "ARG_OF_PERICENTER": 107.8382, "MEAN_ANOMALY": 288.4315, "EPHEMERIS_TYPE": 0, "CLASSIFICATION_TYPE": "U", "NORAD_CAT_ID": 29737, "ELEMENT_SET_NO": 999, "REV_AT_EPOCH": 87047, "BSTAR": 0.0044084, "MEAN_MOTION_DOT": 2.123e-05, "MEAN_MOTION_DDOT": 0}, "tle": {"line1": "1 29737U 99025AB  25360.84118574  .00002123  00000+0  44084-2 0  9996", "line2": "2 29737  99.5801 313.5818 0696212 107.8382 288.4315 12.65699266870475"}}, "geometry": {"type": "Point", "coordinates": [-29.45185439442677, -58.90092698861266]}}, {"type": "Feature", "properties": {"norad_id": 29738, "name": "FENGYUN 1C DEB", "group": "fengyun-1c-debris", "lat": 77.23187395551118, "lon": 118.87352637118369, "alt_km": 2085.7325781083246, "timestamp": "2025-12-27T16:33:30.493513+00:00", "meta": {"OBJECT_NAME": "FENGYUN 1C DEB", "OBJECT_ID": "1999-025AC", "EPOCH": "2025-12-26T21:02:13.665120", "MEAN_MOTION": 12.61105402, "ECCENTRICITY": 0.0865394, "INCLINATION": 99.4098, "RA_OF_ASC_NODE": 165.2396, "ARG_OF_PERICENTER": 263.8832, "MEAN_ANOMALY": 86.3106, "EPHEMERIS_TYPE": 0, "CLASSIFICATION_TYPE": "U", "NORAD_CAT_ID": 29738, "ELEMENT_SET_NO": 999, "REV_AT_EPOCH": 86395, "BSTAR": 0.0046164, "MEAN_MOTION_DOT": 3.497e-05, "MEAN_MOTION_DDOT": 0}, "tle": {"line1": "1 29738U 99025AC  25360.87654705  .00003497  00000+0  46164-2 0  9997", "line2": "2 29738  99.4098 165.2396 0865394 263.8832  86.3106 12.61105402863956"}}, "geometry": {"type": "Point", "coordinates": [118.87352637118369, 77.23187395551118]}}, {"type": "Feature", "properties": {"norad_id": 29740, "name": "FENGYUN 1C DEB", "group": "fengyun-1c-debris", "lat": 55.696015189765475, "lon": 42.49064843308418, "alt_km": 1055.9789043040346, "timestamp": "2025-12-27T16:33:30.493525+00:00", "meta": {"OBJECT_NAME": "FENGYUN 1C DEB", "OBJECT_ID": "1999-025AE", "EPOCH": "2025-12-26T23:57:05.992128", "MEAN_MOTION": 12.08325329, "ECCENTRICITY": 0.09733097, "INCLINATION": 99.0464, "RA_OF_ASC_NODE": 208.4936, "ARG_OF_PERICENTER": 170.1912, "MEAN_ANOMALY": 191.9764, "EPHEMERIS_TYPE": 0, "CLASSIFICATION_TYPE": "U", "NORAD_CAT_ID": 29740, "ELEMENT_SET_NO": 999, "REV_AT_EPOCH": 83107, "BSTAR": 0.00079375033, "MEAN_MOTION_DOT": 2.8e-06, "MEAN_MOTION_DDOT": 0}, "tle": {"line1": "1 29740U 99025AE  25360.99798602  .00000280  00000+0  79375-3 0  9996", "line2": "2 29740  99.0464 208.4936 0973309 170.1912 191.9764 12.08325329831071"}}, "geometry": {"type": "Point", "coordinates": [42.49064843308418, 55.696015189765475]}}, {"type": "Feature", "properties": {"norad_id": 29741, "name": "FENGYUN 1C DEB", "group": "fengyun-1c-debris", "lat": -43.99474633650191, "lon": -119.24762100895259, "alt_km": 1447.6997153441826, "timestamp": "2025-12-27T16:33:30.493536+00:00", "meta": {"OBJECT_NAME": "FENGYUN 1C DEB", "OBJECT_ID": "1999-025AF", "EPOCH": "2025-12-27T03:32:10.690944", "MEAN_MOTION": 12.01000336, "ECCENTRICITY": 0.10264891, "INCLINATION": 99.1727, "RA_OF_ASC_NODE": 231.3898, "ARG_OF_PERICENTER": 35.6402, "MEAN_ANOMALY": 106.2151, "EPHEMERIS_TYPE": 0, "CLASSIFICATION_TYPE": "U", "NORAD_CAT_ID": 29741, "ELEMENT_SET_NO": 999, "REV_AT_EPOCH": 52356, "BSTAR": 0.0060717487, "MEAN_MOTION_DOT": 2.375e-05, "MEAN_MOTION_DDOT": 0}, "tle": {"line1": "1 29741U 99025AF  25361.14734596  .00002375  00000+0  60717-2 0  9993", "line2": "2 29741  99.1727 231.3898 1026489  35.6402 106.2151 12.01000336523567"}}, "geometry": {"type": "Point", "coordinates": [-119.24762100895259, -43.99474633650191]}}, {"type": "Feature", "properties": {"norad_id": 29748, "name": "FENGYUN 1C DEB", "group": "fengyun-1c-debris", "lat": 53.472789077213754, "lon": -84.68909310478438, "alt_km": 1412.2281444611644, "timestamp": "2025-12-27T16:33:30.493547+00:00", "meta": {"OBJECT_NAME": "FENGYUN 1C DEB", "OBJECT_ID": "1999-025AN", "EPOCH": "2025-12-24T01:35:25.055808", "MEAN_MOTION": 11.90656496, "ECCENTRICITY": 0.08691967, "INCLINATION": 99.7818, "RA_OF_ASC_NODE": 286.0832, "ARG_OF_PERICENTER": 352.5635, "MEAN_ANOMALY": 6.319, "EPHEMERIS_TYPE": 0, "CLASSIFICATION_TYPE": "U", "NORAD_CAT_ID": 29748, "ELEMENT_SET_NO": 999, "REV_AT_EPOCH": 78868, "BSTAR": 0.11647721, "MEAN_MOTION_DOT": 0.00024365, "MEAN_MOTION_DDOT": 0}, "tle": {"line1": "1 29748U 99025AN  25358.06626222  .00024365  00000+0  11648+0 0  9992", "line2": "2 29748  99.7818 286.0832 0869196 352.5635   6.3190 11.90656496788684"}}, "geometry": {"type": "Point", "coordinates": [-84.68909310478438, 53.472789077213754]}}]}